[{"OBJECT_NAME":"TIANQI-25","OBJECT_ID":"2024-102A","EPOCH":"2026-03-09T21:59:20.408352","MEAN_MOTION":13.99133359,"ECCENTRICITY":0.00097008,"INCLINATION":44.9789,"RA_OF_ASC_NODE":343.6735,"ARG_OF_PERICENTER":130.7366,"MEAN_ANOMALY":229.431,"EPHEMERIS_TYPE":0,"CLASSIFICATION_TYPE":"U","NORAD_CAT_ID":59909,"ELEMENT_SET_NO":999,"REV_AT_EPOCH":9100,"BSTAR":0.00024425271,"MEAN_MOTION_DOT":2.28e-6,"MEAN_MOTION_DDOT":0},{"OBJECT_NAME":"CZ-6A DEB","OBJECT_ID":"2022-151AHX","EPOCH":"2026-03-07T22:33:05.379840","MEAN_MOTION":14.08449909,"ECCENTRICITY":0.00835248,"INCLINATION":98.8749,"RA_OF_ASC_NODE":60.3683,"ARG_OF_PERICENTER":300.1426,"MEAN_ANOMALY":59.1485,"EPHEMERIS_TYPE":0,"CLASSIFICATION_TYPE":"U","NORAD_CAT_ID":58429,"ELEMENT_SET_NO":999,"REV_AT_EPOCH":15004,"BSTAR":0.0018248712,"MEAN_MOTION_DOT":3.187e-5,"MEAN_MOTION_DDOT":0}]
